[{"OBJECT_NAME":"SENTINEL-3A","OBJECT_ID":"2016-011A","EPOCH":"2026-03-09T21:54:08.177760","MEAN_MOTION":14.26741759,"ECCENTRICITY":0.00012494,"INCLINATION":98.6228,"RA_OF_ASC_NODE":137.6961,"ARG_OF_PERICENTER":99.0654,"MEAN_ANOMALY":261.0668,"EPHEMERIS_TYPE":0,"CLASSIFICATION_TYPE":"U","NORAD_CAT_ID":41335,"ELEMENT_SET_NO":999,"REV_AT_EPOCH":52390,"BSTAR":8.2696554e-5,"MEAN_MOTION_DOT":1.57e-6,"MEAN_MOTION_DDOT":0},{"OBJECT_NAME":"FENGYUN 1C DEB","OBJECT_ID":"1999-025AXS","EPOCH":"2026-03-09T21:50:40.807392","MEAN_MOTION":14.26208056,"ECCENTRICITY":0.00225368,"INCLINATION":98.783,"RA_OF_ASC_NODE":146.0111,"ARG_OF_PERICENTER":207.1773,"MEAN_ANOMALY":152.8229,"EPHEMERIS_TYPE":0,"CLASSIFICATION_TYPE":"U","NORAD_CAT_ID":30880,"ELEMENT_SET_NO":999,"REV_AT_EPOCH":97956,"BSTAR":0.0013898392,"MEAN_MOTION_DOT":3.295e-5,"MEAN_MOTION_DDOT":0}]
